ONEWEB-0289             
1 49079U 21075E   24089.94389958 -.00000021  00000+0 -86685-4 0  9993
2 49079  87.9247 166.9011 0001859 100.2186 259.9155 13.17647770127631
ONEWEB-0290             
1 49080U 21075F   24089.92649408  .00000033  00000+0  52119-4 0  9998
2 49080  87.9244 166.8666 0002113 117.1507 242.9840 13.17650125127049
ONEWEB-0291             
1 49081U 21075G   24089.91067962  .00000048  00000+0  91771-4 0  9990
2 49081  87.9238 166.8950 0002226 110.1546 249.9825 13.17648621127037
ONEWEB-0293             
1 49082U 21075H   24089.93598857  .00000078  00000+0  16882-3 0  9997
2 49082  87.9244 166.8996 0002051 112.4906 247.6443 13.17652143127064
ONEWEB-0294             
1 49083U 21075J   24089.91792272  .00000341  00000+0  91132-3 0  9997
2 49083  87.8996 151.7612 0002236 120.0718 240.0633 13.12445235128423
ONEWEB-0295             
1 49084U 21075K   24089.93757836 -.00000024  00000+0 -94504-4 0  9994
2 49084  87.9247 166.8757 0002519 108.6240 251.5165 13.17648391127022
ONEWEB-0296             
1 49085U 21075L   24089.90044708 -.00000289  00000+0 -83924-3 0  9995
2 49085  87.8999 151.7645 0002698 113.0373 247.1040 13.12444895128426
ONEWEB-0297             
1 49086U 21075M   24089.93222216  .00000460  00000+0  12430-2 0  9993
2 49086  87.9005 151.7592 0002054  97.7102 262.4260 13.12444099129039
